     3.02           N: GNSS NAV DATA    G: GPS              RINEX VERSION / TYPE
GNSS-SDR            suhjw               20250806 042530 UTC PGM / RUN BY / DATE 
GPS NAVIGATION MESSAGE FILE GENERATED BY GNSS-SDR           COMMENT             
GNSS-SDR VERSION 0.0.20                                     COMMENT             
See https://gnss-sdr.org                                    COMMENT             
GPSA    .0000D+00   .0000D+00   .0000D+00   .0000D+00       IONOSPHERIC CORR    
GPSB    .0000D+00   .0000D+00   .0000D+00   .0000D+00       IONOSPHERIC CORR    
GPUT   .0000000000D+00  .000000000D+00      0 2378          TIME SYSTEM CORR    
     0     0     0     0                                    LEAP SECONDS        
                                                            END OF HEADER       
G05 2025 08 06 06 00 00 -.216606073081D-03 -.909494701773D-12  .000000000000D+00
      .480000000000D+02 -.700000000000D+02  .421160400164D-08  .150231806777D+01
     -.386126339436D-05  .580505828839D-02  .147148966789D-05  .515359822273D+04
      .280800000000D+06  .372529029846D-07  .153755612310D+01 -.763684511185D-07
      .977083036345D+00  .363843750000D+03  .141262477118D+01 -.820569894316D-08
     -.215008955986D-09  .100000000000D+01  .237800000000D+04  .100000000000D+01
      .000000000000D+00  .000000000000D+00 -.107102096081D-07  .480000000000D+02
      .275148000000D+06  .000000000000D+00                                      
G11 2025 08 06 06 00 00 -.653514172882D-03  .102318153949D-10  .000000000000D+00
      .108000000000D+03  .106906250000D+03  .444447084434D-08  .460744087292D+00
      .558979809284D-05  .200639932882D-02  .311620533466D-05  .515370591164D+04
      .280800000000D+06 -.931322574615D-08  .581940553760D+00  .186264514923D-07
      .965282947475D+00  .321562500000D+03 -.241662862059D+01 -.826391565383D-08
      .617882880159D-10  .100000000000D+01  .237800000000D+04  .100000000000D+01
      .000000000000D+00  .000000000000D+00 -.884756445885D-08  .108000000000D+03
      .275148000000D+06  .000000000000D+00                                      
G13 2025 08 06 06 00 00  .700225122273D-03 -.341060513165D-12  .000000000000D+00
      .430000000000D+02 -.844062500000D+02  .387837583564D-08  .940881193033D+00
     -.444240868092D-05  .956022460014D-02  .997632741928D-05  .515368859673D+04
      .280800000000D+06 -.104308128357D-06  .277785670052D+01  .614672899246D-07
      .974806116999D+00  .196437500000D+03  .978908171477D+00 -.771282126996D-08
      .215366113720D-09  .100000000000D+01  .237800000000D+04  .100000000000D+01
      .000000000000D+00  .000000000000D+00 -.116415321827D-07  .430000000000D+02
      .275148000000D+06  .000000000000D+00                                      
G21 2025 08 06 06 00 00  .159817747772D-03  .255795384874D-10  .000000000000D+00
      .270000000000D+02 -.812187500000D+02  .453197448921D-08  .235115064416D+01
     -.422820448875D-05  .138101517223D-03  .140070915222D-05  .515364700317D+04
      .280800000000D+06  .447034835815D-07  .160710493826D+01  .447034835815D-07
      .959787122666D+00  .353593750000D+03  .104141197547D+01 -.837284876276D-08
     -.168935608275D-09  .100000000000D+01  .237800000000D+04  .100000000000D+01
      .000000000000D+00  .000000000000D+00 -.838190317154D-08  .795000000000D+03
      .275148000000D+06  .000000000000D+00                                      
G30 2025 08 06 06 00 00 -.720033422112D-04  .105728759081D-10  .000000000000D+00
      .520000000000D+02  .746875000000D+01  .514807158070D-08 -.181357434512D+01
      .208616256714D-06  .769361481071D-02  .729039311409D-05  .515363672256D+04
      .280800000000D+06  .117346644402D-06 -.261095515640D+01 -.447034835815D-07
      .935968047032D+00  .220468750000D+03 -.235458405438D+01 -.807569352791D-08
      .649669918503D-09  .100000000000D+01  .237800000000D+04  .100000000000D+01
      .000000000000D+00  .000000000000D+00  .372529029846D-08  .520000000000D+02
      .275148000000D+06  .000000000000D+00                                      
G24 2025 08 06 06 00 00 -.338710844517D-03  .102318153949D-10  .000000000000D+00
      .920000000000D+02  .540625000000D+01  .530022077547D-08 -.661279124541D+00
      .571832060814D-06  .170756089501D-01  .808015465736D-05  .515366390228D+04
      .280800000000D+06 -.391155481339D-07 -.270977243459D+01  .253319740295D-06
      .934710369044D+00  .214906250000D+03  .107944369669D+01 -.846606693138D-08
      .582881422208D-09  .100000000000D+01  .237800000000D+04  .100000000000D+01
      .000000000000D+00  .000000000000D+00  .232830643654D-08  .920000000000D+02
      .275166000000D+06  .000000000000D+00                                      
